  { id: 36, actorId: 37, semiMajorAxis: 0.0001167395389008126, eccentricity: 0.0001703184908127824, inclination: 112.8877843363349, argOfPeriapsis: 174.2697240929696, ascendingNode: 227.3930521465621, meanAnomalyAtEpoch: 195.3708239660637, epoch: 2461222.5, period: 6.387223 },
  { id: 37, actorId: 38, semiMajorAxis: 2.491642854253084e-4, eccentricity: 0.006074623100450718, inclination: 61.60969712513381, argOfPeriapsis: 155.4079313960994, ascendingNode: 139.0978372358126, meanAnomalyAtEpoch: 203.947910923442, epoch: 2460057.5, period: 0 },
  { id: 38, actorId: 44, semiMajorAxis: 5.0159, eccentricity: 0.35, inclination: 14.8, argOfPeriapsis: 41.168, ascendingNode: 125.452, meanAnomalyAtEpoch: 27.276, epoch: 2451545, period: 0 },
  { id: 39, actorId: 57, semiMajorAxis: 0.0159, eccentricity: 0.35, inclination: 0.2, argOfPeriapsis: 41.168, ascendingNode: 125.452, meanAnomalyAtEpoch: 127.276, epoch: 2451545, period: 0 },
  { id: 40, actorId: 60, semiMajorAxis: 0.137, eccentricity: 0.25, inclination: 2.5, argOfPeriapsis: 47.8, ascendingNode: 94.2, meanAnomalyAtEpoch: 22.1, epoch: 2451545, period: 0 },
  { id: 41, actorId: 61, semiMajorAxis: 0.145, eccentricity: 0.3, inclination: 2.5, argOfPeriapsis: 213.5, ascendingNode: 94.2, meanAnomalyAtEpoch: 335.4, epoch: 2451545, period: 0 },
  { id: 42, actorId: 62, semiMajorAxis: 1.5, eccentricity: 0.05, inclination: 2.1, argOfPeriapsis: 259.1, ascendingNode: 27.4, meanAnomalyAtEpoch: 77.3, epoch: 2451545, period: 0 },
  { id: 43, actorId: 63, semiMajorAxis: 5.2, eccentricity: 0.125, inclination: 1.7, argOfPeriapsis: 30.5, ascendingNode: 240.3, meanAnomalyAtEpoch: 70.8, epoch: 2451545, period: 0 },
  { id: 44, actorId: 64, semiMajorAxis: 11.2, eccentricity: 0.26, inclination: 5.3, argOfPeriapsis: 140.6, ascendingNode: 58.2, meanAnomalyAtEpoch: 250.4, epoch: 2451545, period: 0 },
  { id: 45, actorId: 65, semiMajorAxis: 1e-3, eccentricity: 0.07, inclination: 3.142, argOfPeriapsis: 45.769, ascendingNode: 27.314, meanAnomalyAtEpoch: 97.123, epoch: 2451545, period: 0 },
  { id: 46, actorId: 66, semiMajorAxis: 0.0027, eccentricity: 0.09, inclination: 4.36, argOfPeriapsis: 250.908, ascendingNode: 114.783, meanAnomalyAtEpoch: 178.234, epoch: 2451545, period: 0 },
  { id: 47, actorId: 67, semiMajorAxis: 0.04, eccentricity: 0.36, inclination: 2.14, argOfPeriapsis: 310.582, ascendingNode: 87.231, meanAnomalyAtEpoch: 67.391, epoch: 2451545, period: 0 },
  { id: 48, actorId: 68, semiMajorAxis: 3e-3, eccentricity: 0.06, inclination: 0.14, argOfPeriapsis: 234.678, ascendingNode: 77.123, meanAnomalyAtEpoch: 10.234, epoch: 2451545, period: 0 },
  { id: 49, actorId: 69, semiMajorAxis: 7e-3, eccentricity: 0.16, inclination: 0.84, argOfPeriapsis: 56.789, ascendingNode: 210.345, meanAnomalyAtEpoch: 178.123, epoch: 2451545, period: 0 },
  { id: 50, actorId: 70, semiMajorAxis: 0.015, eccentricity: 0.09, inclination: 1.32, argOfPeriapsis: 123.456, ascendingNode: 300.234, meanAnomalyAtEpoch: 250.567, epoch: 2451545, period: 0 },
  { id: 51, actorId: 71, semiMajorAxis: 0.0017, eccentricity: 0.03, inclination: -30.2, argOfPeriapsis: 200.123, ascendingNode: 187.489, meanAnomalyAtEpoch: 342.567, epoch: 2451545, period: 0 },
  { id: 52, actorId: 72, semiMajorAxis: 0.0024, eccentricity: 0.02, inclination: -31.4, argOfPeriapsis: 78.934, ascendingNode: 188.567, meanAnomalyAtEpoch: 150.245, epoch: 2451545, period: 0 },
  { id: 53, actorId: 73, semiMajorAxis: 0.0035, eccentricity: 0.03, inclination: -32.1, argOfPeriapsis: 102.345, ascendingNode: 190.255, meanAnomalyAtEpoch: 89.456, epoch: 2451545, period: 0 },
  { id: 54, actorId: 74, semiMajorAxis: 0.0064, eccentricity: 0.13, inclination: -35.8, argOfPeriapsis: 120.789, ascendingNode: 195.124, meanAnomalyAtEpoch: 270.987, epoch: 2451545, period: 0 },
  { id: 55, actorId: 82, semiMajorAxis: 2.2, eccentricity: 0.125, inclination: 1.7, argOfPeriapsis: 30.5, ascendingNode: 240.3, meanAnomalyAtEpoch: 70.8, epoch: 2451545, period: 0 },
  { id: 56, actorId: 83, semiMajorAxis: 3e-3, eccentricity: 0.07, inclination: 3.142, argOfPeriapsis: 45.769, ascendingNode: 27.314, meanAnomalyAtEpoch: 177.123, epoch: 2451545, period: 0 },
  { id: 57, actorId: 88, semiMajorAxis: 1.62, eccentricity: 0.045, inclination: 0.9, argOfPeriapsis: 142, ascendingNode: 35, meanAnomalyAtEpoch: 52, epoch: 2451545, period: 0 },
  { id: 58, actorId: 90, semiMajorAxis: 111.7, eccentricity: 0.2, inclination: 17.2, argOfPeriapsis: 354.7156039222869, ascendingNode: 275.2, meanAnomalyAtEpoch: 179.5772726600362, epoch: 2451545, period: 0 },
  { id: 59, actorId: 93, semiMajorAxis: 9.358e-5, eccentricity: 0.012, inclination: 1.1, argOfPeriapsis: 88, ascendingNode: 12, meanAnomalyAtEpoch: 15, epoch: 2451545, period: 0 },
  { id: 60, actorId: 94, semiMajorAxis: 1.7714e-4, eccentricity: 0.018, inclination: 2.4, argOfPeriapsis: 210, ascendingNode: 95, meanAnomalyAtEpoch: 220, epoch: 2451545, period: 0 },
  { id: 61, actorId: 95, semiMajorAxis: 3.1418e-4, eccentricity: 0.031, inclination: 4, argOfPeriapsis: 33, ascendingNode: 150, meanAnomalyAtEpoch: 60, epoch: 2451545, period: 0 },
  { id: 62, actorId: 96, semiMajorAxis: 5.4814e-4, eccentricity: 0.022, inclination: 6.7, argOfPeriapsis: 305, ascendingNode: 270, meanAnomalyAtEpoch: 310, epoch: 2451545, period: 0 },
  { id: 63, actorId: 97, semiMajorAxis: 0.00110296, eccentricity: 0.085, inclination: 15.3, argOfPeriapsis: 140, ascendingNode: 188, meanAnomalyAtEpoch: 140, epoch: 2451545, period: 0 },
  { id: 64, actorId: 98, semiMajorAxis: 0.00227276, eccentricity: 0.142, inclination: 38.6, argOfPeriapsis: 250, ascendingNode: 320, meanAnomalyAtEpoch: 5, epoch: 2451545, period: 0 },
  { id: 65, actorId: 99, semiMajorAxis: 0.00454552, eccentricity: 0.211, inclination: 162.4, argOfPeriapsis: 70, ascendingNode: 80, meanAnomalyAtEpoch: 190, epoch: 2451545, period: 0 }
]
